[{"OBJECT_NAME":"STARLINK-4700","OBJECT_ID":"2022-107Y","EPOCH":"2026-03-09T17:57:29.505888","MEAN_MOTION":15.08834191,"ECCENTRICITY":0.00011489,"INCLINATION":53.2162,"RA_OF_ASC_NODE":253.7706,"ARG_OF_PERICENTER":89.3033,"MEAN_ANOMALY":270.8091,"EPHEMERIS_TYPE":0,"CLASSIFICATION_TYPE":"U","NORAD_CAT_ID":53722,"ELEMENT_SET_NO":999,"REV_AT_EPOCH":19441,"BSTAR":-8.4773554e-5,"MEAN_MOTION_DOT":-1.636e-5,"MEAN_MOTION_DDOT":0},{"OBJECT_NAME":"CSC-1","OBJECT_ID":"2023-155G","EPOCH":"2026-03-09T17:46:02.342496","MEAN_MOTION":15.1003596,"ECCENTRICITY":0.00075041,"INCLINATION":97.5446,"RA_OF_ASC_NODE":139.7305,"ARG_OF_PERICENTER":212.9992,"MEAN_ANOMALY":147.077,"EPHEMERIS_TYPE":0,"CLASSIFICATION_TYPE":"U","NORAD_CAT_ID":58022,"ELEMENT_SET_NO":999,"REV_AT_EPOCH":13272,"BSTAR":0.00054556609,"MEAN_MOTION_DOT":8.819e-5,"MEAN_MOTION_DDOT":0}]
